[{"OBJECT_NAME":"JIAOTONG 5 (HEAD-2H)","OBJECT_ID":"2022-167K","EPOCH":"2026-03-09T23:22:06.822048","MEAN_MOTION":15.70872056,"ECCENTRICITY":0.00036843,"INCLINATION":97.6162,"RA_OF_ASC_NODE":251.2696,"ARG_OF_PERICENTER":321.7019,"MEAN_ANOMALY":38.3981,"EPHEMERIS_TYPE":0,"CLASSIFICATION_TYPE":"U","NORAD_CAT_ID":54691,"ELEMENT_SET_NO":999,"REV_AT_EPOCH":18142,"BSTAR":0.0011277683,"MEAN_MOTION_DOT":0.00142368,"MEAN_MOTION_DDOT":0},{"OBJECT_NAME":"STARLINK-11264 [DTC]","OBJECT_ID":"2024-154D","EPOCH":"2026-03-09T10:51:04.413024","MEAN_MOTION":15.69704176,"ECCENTRICITY":0.00011275,"INCLINATION":53.1591,"RA_OF_ASC_NODE":132.6852,"ARG_OF_PERICENTER":97.8612,"MEAN_ANOMALY":262.2534,"EPHEMERIS_TYPE":0,"CLASSIFICATION_TYPE":"U","NORAD_CAT_ID":60906,"ELEMENT_SET_NO":999,"REV_AT_EPOCH":8847,"BSTAR":6.498527e-6,"MEAN_MOTION_DOT":1.99e-6,"MEAN_MOTION_DDOT":0}]
